<?xml version="1.0" encoding="UTF-8"?>
<ndm xmlns:xsi="http://www.w3.org/2001/XMLSchema-instance" xsi:noNamespaceSchemaLocation="https://sanaregistry.org/r/ndmxml_unqualified/ndmxml-2.0.0-master-2.0.xsd">
<omm id="CCSDS_OMM_VERS" version="2.0">
<header><CREATION_DATE/><ORIGINATOR/></header><body><segment><metadata><OBJECT_NAME>QIANFAN-1</OBJECT_NAME><OBJECT_ID>2024-140A</OBJECT_ID><CENTER_NAME>EARTH</CENTER_NAME><REF_FRAME>TEME</REF_FRAME><TIME_SYSTEM>UTC</TIME_SYSTEM><MEAN_ELEMENT_THEORY>SGP4</MEAN_ELEMENT_THEORY></metadata><data><meanElements><EPOCH>2025-09-23T00:52:24.417408</EPOCH><MEAN_MOTION>13.50973478</MEAN_MOTION><ECCENTRICITY>.00196915</ECCENTRICITY><INCLINATION>88.9776</INCLINATION><RA_OF_ASC_NODE>307.6468</RA_OF_ASC_NODE><ARG_OF_PERICENTER>89.3539</ARG_OF_PERICENTER><MEAN_ANOMALY>270.9868</MEAN_ANOMALY></meanElements><tleParameters><EPHEMERIS_TYPE>0</EPHEMERIS_TYPE><CLASSIFICATION_TYPE>U</CLASSIFICATION_TYPE><NORAD_CAT_ID>60379</NORAD_CAT_ID><ELEMENT_SET_NO>999</ELEMENT_SET_NO><REV_AT_EPOCH>5645</REV_AT_EPOCH><BSTAR>.16708603E-3</BSTAR><MEAN_MOTION_DOT>.12E-5</MEAN_MOTION_DOT><MEAN_MOTION_DDOT>0</MEAN_MOTION_DDOT></tleParameters></data></segment></body></omm>
<omm id="CCSDS_OMM_VERS" version="2.0">
<header><CREATION_DATE/><ORIGINATOR/></header><body><segment><metadata><OBJECT_NAME>QIANFAN-2</OBJECT_NAME><OBJECT_ID>2024-140B</OBJECT_ID><CENTER_NAME>EARTH</CENTER_NAME><REF_FRAME>TEME</REF_FRAME><TIME_SYSTEM>UTC</TIME_SYSTEM><MEAN_ELEMENT_THEORY>SGP4</MEAN_ELEMENT_THEORY></metadata><data><meanElements><EPOCH>2025-09-22T23:47:01.434912</EPOCH><MEAN_MOTION>13.50965568</MEAN_MOTION><ECCENTRICITY>.00146145</ECCENTRICITY><INCLINATION>88.9763</INCLINATION><RA_OF_ASC_NODE>307.5019</RA_OF_ASC_NODE><ARG_OF_PERICENTER>65.9354</ARG_OF_PERICENTER><MEAN_ANOMALY>294.3324</MEAN_ANOMALY></meanElements><tleParameters><EPHEMERIS_TYPE>0</EPHEMERIS_TYPE><CLASSIFICATION_TYPE>U</CLASSIFICATION_TYPE><NORAD_CAT_ID>60380</NORAD_CAT_ID><ELEMENT_SET_NO>999</ELEMENT_SET_NO><REV_AT_EPOCH>5650</REV_AT_EPOCH><BSTAR>.15525199E-3</BSTAR><MEAN_MOTION_DOT>.112E-5</MEAN_MOTION_DOT><MEAN_MOTION_DDOT>0</MEAN_MOTION_DDOT></tleParameters></data></segment></body></omm>
<omm id="CCSDS_OMM_VERS" version="2.0">
<header><CREATION_DATE/><ORIGINATOR/></header><body><segment><metadata><OBJECT_NAME>QIANFAN-3</OBJECT_NAME><OBJECT_ID>2024-140C</OBJECT_ID><CENTER_NAME>EARTH</CENTER_NAME><REF_FRAME>TEME</REF_FRAME><TIME_SYSTEM>UTC</TIME_SYSTEM><MEAN_ELEMENT_THEORY>SGP4</MEAN_ELEMENT_THEORY></metadata><data><meanElements><EPOCH>2025-09-22T23:58:57.251136</EPOCH><MEAN_MOTION>13.50965684</MEAN_MOTION><ECCENTRICITY>.00159634</ECCENTRICITY><INCLINATION>88.9757</INCLINATION><RA_OF_ASC_NODE>307.6396</RA_OF_ASC_NODE><ARG_OF_PERICENTER>76.6022</ARG_OF_PERICENTER><MEAN_ANOMALY>283.6908</MEAN_ANOMALY></meanElements><tleParameters><EPHEMERIS_TYPE>0</EPHEMERIS_TYPE><CLASSIFICATION_TYPE>U</CLASSIFICATION_TYPE><NORAD_CAT_ID>60381</NORAD_CAT_ID><ELEMENT_SET_NO>999</ELEMENT_SET_NO><REV_AT_EPOCH>5641</REV_AT_EPOCH><BSTAR>.16291758E-3</BSTAR><MEAN_MOTION_DOT>.117E-5</MEAN_MOTION_DOT><MEAN_MOTION_DDOT>0</MEAN_MOTION_DDOT></tleParameters></data></segment></body></omm>
<omm id="CCSDS_OMM_VERS" version="2.0">
<header><CREATION_DATE/><ORIGINATOR/></header><body><segment><metadata><OBJECT_NAME>QIANFAN-4</OBJECT_NAME><OBJECT_ID>2024-140D</OBJECT_ID><CENTER_NAME>EARTH</CENTER_NAME><REF_FRAME>TEME</REF_FRAME><TIME_SYSTEM>UTC</TIME_SYSTEM><MEAN_ELEMENT_THEORY>SGP4</MEAN_ELEMENT_THEORY></metadata><data><meanElements><EPOCH>2025-09-23T01:10:10.639200</EPOCH><MEAN_MOTION>13.50972860</MEAN_MOTION><ECCENTRICITY>.00148995</ECCENTRICITY><INCLINATION>88.9781</INCLINATION><RA_OF_ASC_NODE>307.5120</RA_OF_ASC_NODE><ARG_OF_PERICENTER>67.9941</ARG_OF_PERICENTER><MEAN_ANOMALY>292.2791</MEAN_ANOMALY></meanElements><tleParameters><EPHEMERIS_TYPE>0</EPHEMERIS_TYPE><CLASSIFICATION_TYPE>U</CLASSIFICATION_TYPE><NORAD_CAT_ID>60382</NORAD_CAT_ID><ELEMENT_SET_NO>999</ELEMENT_SET_NO><REV_AT_EPOCH>5654</REV_AT_EPOCH><BSTAR>.14981708E-3</BSTAR><MEAN_MOTION_DOT>.109E-5</MEAN_MOTION_DOT><MEAN_MOTION_DDOT>0</MEAN_MOTION_DDOT></tleParameters></data></segment></body></omm>
<omm id="CCSDS_OMM_VERS" version="2.0">
<header><CREATION_DATE/><ORIGINATOR/></header><body><segment><metadata><OBJECT_NAME>QIANFAN-5</OBJECT_NAME><OBJECT_ID>2024-140E</OBJECT_ID><CENTER_NAME>EARTH</CENTER_NAME><REF_FRAME>TEME</REF_FRAME><TIME_SYSTEM>UTC</TIME_SYSTEM><MEAN_ELEMENT_THEORY>SGP4</MEAN_ELEMENT_THEORY></metadata><data><meanElements><EPOCH>2025-09-23T00:34:34.319712</EPOCH><MEAN_MOTION>13.50968677</MEAN_MOTION><ECCENTRICITY>.00173537</ECCENTRICITY><INCLINATION>88.9755</INCLINATION><RA_OF_ASC_NODE>307.6627</RA_OF_ASC_NODE><ARG_OF_PERICENTER>86.1454</ARG_OF_PERICENTER><MEAN_ANOMALY>274.1681</MEAN_ANOMALY></meanElements><tleParameters><EPHEMERIS_TYPE>0</EPHEMERIS_TYPE><CLASSIFICATION_TYPE>U</CLASSIFICATION_TYPE><NORAD_CAT_ID>60383</NORAD_CAT_ID><ELEMENT_SET_NO>999</ELEMENT_SET_NO><REV_AT_EPOCH>5640</REV_AT_EPOCH><BSTAR>.15065159E-3</BSTAR><MEAN_MOTION_DOT>.11E-5</MEAN_MOTION_DOT><MEAN_MOTION_DDOT>0</MEAN_MOTION_DDOT></tleParameters></data></segment></body></omm>
<omm id="CCSDS_OMM_VERS" version="2.0">
<header><CREATION_DATE/><ORIGINATOR/></header><body><segment><metadata><OBJECT_NAME>QIANFAN-6</OBJECT_NAME><OBJECT_ID>2024-140F</OBJECT_ID><CENTER_NAME>EARTH</CENTER_NAME><REF_FRAME>TEME</REF_FRAME><TIME_SYSTEM>UTC</TIME_SYSTEM><MEAN_ELEMENT_THEORY>SGP4</MEAN_ELEMENT_THEORY></metadata><data><meanElements><EPOCH>2025-09-23T01:04:14.520864</EPOCH><MEAN_MOTION>13.50964727</MEAN_MOTION><ECCENTRICITY>.00151175</ECCENTRICITY><INCLINATION>88.9782</INCLINATION><RA_OF_ASC_NODE>307.3853</RA_OF_ASC_NODE><ARG_OF_PERICENTER>73.0797</ARG_OF_PERICENTER><MEAN_ANOMALY>287.2010</MEAN_ANOMALY></meanElements><tleParameters><EPHEMERIS_TYPE>0</EPHEMERIS_TYPE><CLASSIFICATION_TYPE>U</CLASSIFICATION_TYPE><NORAD_CAT_ID>60384</NORAD_CAT_ID><ELEMENT_SET_NO>999</ELEMENT_SET_NO><REV_AT_EPOCH>5660</REV_AT_EPOCH><BSTAR>.16256884E-3</BSTAR><MEAN_MOTION_DOT>.117E-5</MEAN_MOTION_DOT><MEAN_MOTION_DDOT>0</MEAN_MOTION_DDOT></tleParameters></data></segment></body></omm>
<omm id="CCSDS_OMM_VERS" version="2.0">
<header><CREATION_DATE/><ORIGINATOR/></header><body><segment><metadata><OBJECT_NAME>QIANFAN-7</OBJECT_NAME><OBJECT_ID>2024-140G</OBJECT_ID><CENTER_NAME>EARTH</CENTER_NAME><REF_FRAME>TEME</REF_FRAME><TIME_SYSTEM>UTC</TIME_SYSTEM><MEAN_ELEMENT_THEORY>SGP4</MEAN_ELEMENT_THEORY></metadata><data><meanElements><EPOCH>2025-09-22T23:56:50.453952</EPOCH><MEAN_MOTION>14.27555286</MEAN_MOTION><ECCENTRICITY>.0012918</ECCENTRICITY><INCLINATION>88.9784</INCLINATION><RA_OF_ASC_NODE>303.2219</RA_OF_ASC_NODE><ARG_OF_PERICENTER>312.3577</ARG_OF_PERICENTER><MEAN_ANOMALY>47.6522</MEAN_ANOMALY></meanElements><tleParameters><EPHEMERIS_TYPE>0</EPHEMERIS_TYPE><CLASSIFICATION_TYPE>U</CLASSIFICATION_TYPE><NORAD_CAT_ID>60385</NORAD_CAT_ID><ELEMENT_SET_NO>999</ELEMENT_SET_NO><REV_AT_EPOCH>5887</REV_AT_EPOCH><BSTAR>.25819204E-3</BSTAR><MEAN_MOTION_DOT>.649E-5</MEAN_MOTION_DOT><MEAN_MOTION_DDOT>0</MEAN_MOTION_DDOT></tleParameters></data></segment></body></omm>
<omm id="CCSDS_OMM_VERS" version="2.0">
<header><CREATION_DATE/><ORIGINATOR/></header><body><segment><metadata><OBJECT_NAME>QIANFAN-8</OBJECT_NAME><OBJECT_ID>2024-140H</OBJECT_ID><CENTER_NAME>EARTH</CENTER_NAME><REF_FRAME>TEME</REF_FRAME><TIME_SYSTEM>UTC</TIME_SYSTEM><MEAN_ELEMENT_THEORY>SGP4</MEAN_ELEMENT_THEORY></metadata><data><meanElements><EPOCH>2025-09-23T01:16:01.758432</EPOCH><MEAN_MOTION>13.50968561</MEAN_MOTION><ECCENTRICITY>.00186071</ECCENTRICITY><INCLINATION>88.9784</INCLINATION><RA_OF_ASC_NODE>307.6206</RA_OF_ASC_NODE><ARG_OF_PERICENTER>74.2974</ARG_OF_PERICENTER><MEAN_ANOMALY>286.0228</MEAN_ANOMALY></meanElements><tleParameters><EPHEMERIS_TYPE>0</EPHEMERIS_TYPE><CLASSIFICATION_TYPE>U</CLASSIFICATION_TYPE><NORAD_CAT_ID>60386</NORAD_CAT_ID><ELEMENT_SET_NO>999</ELEMENT_SET_NO><REV_AT_EPOCH>5645</REV_AT_EPOCH><BSTAR>.14254711E-3</BSTAR><MEAN_MOTION_DOT>.104E-5</MEAN_MOTION_DOT><MEAN_MOTION_DDOT>0</MEAN_MOTION_DDOT></tleParameters></data></segment></body></omm>

</ndm>
