QIANFAN-1               
1 60379U 24140A   25266.03639372  .00000120  00000+0  16709-3 0  9998
2 60379  88.9776 307.6468 0019691  89.3539 270.9868 13.50973478 56456
QIANFAN-2               
1 60380U 24140B   25265.99098883  .00000112  00000+0  15525-3 0  9996
2 60380  88.9763 307.5019 0014614  65.9354 294.3324 13.50965568 56504
QIANFAN-3               
1 60381U 24140C   25265.99927374  .00000117  00000+0  16292-3 0  9990
2 60381  88.9757 307.6396 0015963  76.6022 283.6908 13.50965684 56414
QIANFAN-4               
1 60382U 24140D   25266.04873425  .00000109  00000+0  14982-3 0  9990
2 60382  88.9781 307.5120 0014899  67.9941 292.2791 13.50972860 56540
QIANFAN-5               
1 60383U 24140E   25266.02400833  .00000110  00000+0  15065-3 0  9993
2 60383  88.9755 307.6627 0017353  86.1454 274.1681 13.50968677 56408
QIANFAN-6               
1 60384U 24140F   25266.04461251  .00000117  00000+0  16257-3 0  9998
2 60384  88.9782 307.3853 0015117  73.0797 287.2010 13.50964727 56603
QIANFAN-7               
1 60385U 24140G   25265.99780618  .00000649  00000+0  25819-3 0  9997
2 60385  88.9784 303.2219 0012918 312.3577  47.6522 14.27555286 58876
QIANFAN-8               
1 60386U 24140H   25266.05279813  .00000104  00000+0  14255-3 0  9994
2 60386  88.9784 307.6206 0018607  74.2974 286.0228 13.50968561 56450
